0 FENGYUN 1C DEB
1 32098U 99025CQQ 13281.27655713  .00000297  00000-0  14601-3 0  3883
2 32098 098.9184 306.5422 0208516 276.8653 080.9204 14.14615413319347
0 FENGYUN 1C DEB
1 32098U 99025CQQ 13285.30814989  .00000432  00000-0  20230-3 0  3890
2 32098 098.9166 310.5650 0209325 265.5429 092.1863 14.14620668319917
0 FENGYUN 1C DEB
1 32098U 99025CQQ 13292.31042184  .00000714  00000-0  32186-3 0  3907
2 32098 098.9166 317.5635 0208246 245.5277 112.4573 14.14630684320901
